[{"OBJECT_NAME":"WORLDVIEW-2 (WV-2)","OBJECT_ID":"2009-055A","EPOCH":"2026-03-09T22:27:15.689664","MEAN_MOTION":14.37910721,"ECCENTRICITY":0.00050548,"INCLINATION":98.4692,"RA_OF_ASC_NODE":143.7977,"ARG_OF_PERICENTER":144.7175,"MEAN_ANOMALY":215.4347,"EPHEMERIS_TYPE":0,"CLASSIFICATION_TYPE":"U","NORAD_CAT_ID":35946,"ELEMENT_SET_NO":999,"REV_AT_EPOCH":86138,"BSTAR":7.9928144e-5,"MEAN_MOTION_DOT":1.98e-6,"MEAN_MOTION_DDOT":0},{"OBJECT_NAME":"DELTA 1 DEB","OBJECT_ID":"1978-026EN","EPOCH":"2026-03-09T21:23:56.812992","MEAN_MOTION":14.44776837,"ECCENTRICITY":0.00898655,"INCLINATION":98.5682,"RA_OF_ASC_NODE":52.4864,"ARG_OF_PERICENTER":204.0237,"MEAN_ANOMALY":155.6749,"EPHEMERIS_TYPE":0,"CLASSIFICATION_TYPE":"U","NORAD_CAT_ID":12294,"ELEMENT_SET_NO":999,"REV_AT_EPOCH":35959,"BSTAR":0.00025840659,"MEAN_MOTION_DOT":8.94e-6,"MEAN_MOTION_DDOT":0}]
